{
  "type": "FeatureCollection",
  "features": [
    {
      "type": "Feature",
      "properties": {
        "norad_id": 66052,
        "name": "HRC MONOBLOCK CAMERA",
        "group": "stations",
        "lat": 50.77298178393734,
        "lon": -79.91281312899656,
        "alt_km": 398.07561111531595,
        "timestamp": "2025-12-05T18:53:12.116232+00:00",
        "meta_object_name": "HRC MONOBLOCK CAMERA",
        "meta_object_id": "1998-067XR",
        "meta_epoch": "2025-12-05T06:06:43.576992",
        "meta_mean_motion": 15.53416514,
        "meta_eccentricity": 0.00042499,
        "meta_inclination": 51.6284,
        "meta_ra_of_asc_node": 178.8082,
        "meta_arg_of_pericenter": 154.3849,
        "meta_mean_anomaly": 205.7352,
        "meta_ephemeris_type": 0,
        "meta_classification_type": "U",
        "meta_norad_cat_id": 66052,
        "meta_element_set_no": 999,
        "meta_rev_at_epoch": 767,
        "meta_bstar": 0.00075336119,
        "meta_mean_motion_dot": 0.00048428,
        "meta_mean_motion_ddot": 0,
        "tle_line1": "1 66052U 98067XR  25339.25467103  .00048428  00000+0  75336-3 0  9991",
        "tle_line2": "2 66052  51.6284 178.8082 0004249 154.3849 205.7352 15.53416514  7673"
      },
      "geometry": {
        "type": "Point",
        "coordinates": [
          -79.91281312899656,
          50.77298178393734
        ]
      }
    },
    {
      "type": "Feature",
      "properties": {
        "norad_id": 66174,
        "name": "HTV-X1",
        "group": "stations",
        "lat": 50.38765181832086,
        "lon": -76.29884093733584,
        "alt_km": 412.44025713416704,
        "timestamp": "2025-12-05T18:53:12.116242+00:00",
        "meta_object_name": "HTV-X1",
        "meta_object_id": "2025-241A",
        "meta_epoch": "2025-12-05T06:04:12.236160",
        "meta_mean_motion": 15.49328184,
        "meta_eccentricity": 0.00035858,
        "meta_inclination": 51.6297,
        "meta_ra_of_asc_node": 179.5463,
        "meta_arg_of_pericenter": 206.2517,
        "meta_mean_anomaly": 153.8291,
        "meta_ephemeris_type": 0,
        "meta_classification_type": "U",
        "meta_norad_cat_id": 66174,
        "meta_element_set_no": 999,
        "meta_rev_at_epoch": 51,
        "meta_bstar": 0.0002719745,
        "meta_mean_motion_dot": 0.00014736,
        "meta_mean_motion_ddot": 0,
        "tle_line1": "1 66174U 25241A   25339.25291940  .00014736  00000+0  27197-3 0  9991",
        "tle_line2": "2 66174  51.6297 179.5463 0003585 206.2517 153.8291 15.49328184   515"
      },
      "geometry": {
        "type": "Point",
        "coordinates": [
          -76.29884093733584,
          50.38765181832086
        ]
      }
    },
    {
      "type": "Feature",
      "properties": {
        "norad_id": 66515,
        "name": "SZ-21 MODULE",
        "group": "stations",
        "lat": 27.66904544158162,
        "lon": -157.96624177461524,
        "alt_km": 377.0668576351345,
        "timestamp": "2025-12-05T18:53:12.116255+00:00",
        "meta_object_name": "SZ-21 MODULE",
        "meta_object_id": "2025-246C",
        "meta_epoch": "2025-12-05T06:01:59.906784",
        "meta_mean_motion": 15.61952064,
        "meta_eccentricity": 0.00060092,
        "meta_inclination": 41.4774,
        "meta_ra_of_asc_node": 61.708,
        "meta_arg_of_pericenter": 217.7851,
        "meta_mean_anomaly": 142.2567,
        "meta_ephemeris_type": 0,
        "meta_classification_type": "U",
        "meta_norad_cat_id": 66515,
        "meta_element_set_no": 999,
        "meta_rev_at_epoch": 327,
        "meta_bstar": 0.00043191945,
        "meta_mean_motion_dot": 0.00038608,
        "meta_mean_motion_ddot": 0,
        "tle_line1": "1 66515U 25246C   25339.25138781  .00038608  00000+0  43192-3 0  9995",
        "tle_line2": "2 66515  41.4774  61.7080 0006009 217.7851 142.2567 15.61952064  3278"
      },
      "geometry": {
        "type": "Point",
        "coordinates": [
          -157.96624177461524,
          27.66904544158162
        ]
      }
    },
    {
      "type": "Feature",
      "properties": {
        "norad_id": 66645,
        "name": "SHENZHOU-22",
        "group": "stations",
        "lat": -30.793603935421167,
        "lon": 16.459252308926892,
        "alt_km": 387.9371130344771,
        "timestamp": "2025-12-05T18:53:12.116265+00:00",
        "meta_object_name": "SHENZHOU-22",
        "meta_object_id": "2025-272A",
        "meta_epoch": "2025-12-05T06:48:03.993120",
        "meta_mean_motion": 15.5871605,
        "meta_eccentricity": 0.00098342,
        "meta_inclination": 41.4682,
        "meta_ra_of_asc_node": 61.9587,
        "meta_arg_of_pericenter": 333.0075,
        "meta_mean_anomaly": 27.0251,
        "meta_ephemeris_type": 0,
        "meta_classification_type": "U",
        "meta_norad_cat_id": 66645,
        "meta_element_set_no": 999,
        "meta_rev_at_epoch": 26289,
        "meta_bstar": 0.00043162186,
        "meta_mean_motion_dot": 0.00034071,
        "meta_mean_motion_ddot": 0,
        "tle_line1": "1 66645U 25272A   25339.28337955  .00034071  00000+0  43162-3 0  9992",
        "tle_line2": "2 66645  41.4682  61.9587 0009834 333.0075  27.0251 15.58716050262897"
      },
      "geometry": {
        "type": "Point",
        "coordinates": [
          16.459252308926892,
          -30.793603935421167
        ]
      }
    },
    {
      "type": "Feature",
      "properties": {
        "norad_id": 66646,
        "name": "CZ-2F R/B",
        "group": "stations",
        "lat": -33.82251717241042,
        "lon": 4.8100026585610385,
        "alt_km": 254.79898169516582,
        "timestamp": "2025-12-05T18:53:12.116276+00:00",
        "meta_object_name": "CZ-2F R/B",
        "meta_object_id": "2025-272B",
        "meta_epoch": "2025-11-26T11:17:54.506400",
        "meta_mean_motion": 16.01945612,
        "meta_eccentricity": 0.01210796,
        "meta_inclination": 41.4431,
        "meta_ra_of_asc_node": 114.9009,
        "meta_arg_of_pericenter": 133.7676,
        "meta_mean_anomaly": 227.3272,
        "meta_ephemeris_type": 0,
        "meta_classification_type": "U",
        "meta_norad_cat_id": 66646,
        "meta_element_set_no": 999,
        "meta_rev_at_epoch": 21,
        "meta_bstar": 0.00029319366,
        "meta_mean_motion_dot": 0.00449059,
        "meta_mean_motion_ddot": 7.567612e-06,
        "tle_line1": "1 66646U 25272B   25330.47076975  .00449059  75676-5  29319-3 0  9998",
        "tle_line2": "2 66646  41.4431 114.9009 0121079 133.7676 227.3272 16.01945612   217"
      },
      "geometry": {
        "type": "Point",
        "coordinates": [
          4.8100026585610385,
          -33.82251717241042
        ]
      }
    },
    {
      "type": "Feature",
      "properties": {
        "norad_id": 66664,
        "name": "SOYUZ-MS 28",
        "group": "stations",
        "lat": 50.387651173557835,
        "lon": -76.29883659197499,
        "alt_km": 412.4402571084911,
        "timestamp": "2025-12-05T18:53:12.116286+00:00",
        "meta_object_name": "SOYUZ-MS 28",
        "meta_object_id": "2025-275A",
        "meta_epoch": "2025-12-05T06:04:12.236160",
        "meta_mean_motion": 15.49328184,
        "meta_eccentricity": 0.00035858,
        "meta_inclination": 51.6297,
        "meta_ra_of_asc_node": 179.5463,
        "meta_arg_of_pericenter": 206.2517,
        "meta_mean_anomaly": 153.8291,
        "meta_ephemeris_type": 0,
        "meta_classification_type": "U",
        "meta_norad_cat_id": 66664,
        "meta_element_set_no": 999,
        "meta_rev_at_epoch": 128,
        "meta_bstar": 0.0002719745,
        "meta_mean_motion_dot": 0.00014736,
        "meta_mean_motion_ddot": 0,
        "tle_line1": "1 66664U 25275A   25339.25291940  .00014736  00000+0  27197-3 0  9992",
        "tle_line2": "2 66664  51.6297 179.5463 0003585 206.2517 153.8291 15.49328184  1284"
      },
      "geometry": {
        "type": "Point",
        "coordinates": [
          -76.29883659197499,
          50.387651173557835
        ]
      }
    },
    {
      "type": "Feature",
      "properties": {
        "norad_id": 66906,
        "name": "1998-067XS",
        "group": "stations",
        "lat": 48.01700952843105,
        "lon": -64.81570145358643,
        "alt_km": 408.726845504998,
        "timestamp": "2025-12-05T18:53:12.116296+00:00",
        "meta_object_name": "1998-067XS",
        "meta_object_id": "1998-067XS",
        "meta_epoch": "2025-12-04T20:45:28.746720",
        "meta_mean_motion": 15.49986178,
        "meta_eccentricity": 0.00041746,
        "meta_inclination": 51.6291,
        "meta_ra_of_asc_node": 181.4578,
        "meta_arg_of_pericenter": 168.934,
        "meta_mean_anomaly": 191.1741,
        "meta_ephemeris_type": 0,
        "meta_classification_type": "U",
        "meta_norad_cat_id": 66906,
        "meta_element_set_no": 999,
        "meta_rev_at_epoch": 39,
        "meta_bstar": 0.000624818,
        "meta_mean_motion_dot": 0.00035352,
        "meta_mean_motion_ddot": 0,
        "tle_line1": "1 66906U 98067XS  25338.86491605  .00035352  00000+0  62482-3 0  9999",
        "tle_line2": "2 66906  51.6291 181.4578 0004174 168.9340 191.1741 15.49986178   398"
      },
      "geometry": {
        "type": "Point",
        "coordinates": [
          -64.81570145358643,
          48.01700952843105
        ]
      }
    }
  ]
}